NORAD_CAT_ID,OBJECT_NAME,OBJECT_TYPE,EPOCH,MEAN_MOTION,ECCENTRICITY,INCLINATION,RA_OF_ASC_NODE,ARG_OF_PERICENTER,MEAN_ANOMALY,BSTAR,MEAN_MOTION_DOT,MEAN_MOTION_DDOT,TLE_LINE0,TLE_LINE1,TLE_LINE2,SEMIMAJOR_AXIS,PERIOD,APOGEE,PERIGEE,DECAYED
52834.0,STARLINK-4108,PAYLOAD,2024-08-15 20:06:41,15.0886031,0.000176,53.2163,76.7761,97.0305,263.0888,0.00027559,4.103e-05,0.0,0 STARLINK-4108,1 52834U 22062E   24228.83797593  .00004103  00000-0  27559-3 0  9992,2 52834  53.2163  76.7761 0001760  97.0305 263.0888 15.08860310119600,6917.818,95.436,540.901,538.466,0.0
52834.0,STARLINK-4108,PAYLOAD,2024-08-15 21:42:04,15.08858166,0.0001786,53.2166,76.4787,95.8702,264.2494,0.00045755,7.005e-05,0.0,0 STARLINK-4108,1 52834U 22062E   24228.90421663  .00007005  00000-0  45755-3 0  9994,2 52834  53.2166  76.4787 0001786  95.8702 264.2494 15.08858166119616,6917.825,95.436,540.925,538.454,0.0
52834.0,STARLINK-4108,PAYLOAD,2024-08-16 23:08:14,15.08846809,0.0001823,53.2167,71.7213,95.1499,264.9702,-6.1782e-05,-1.271e-05,0.0,0 STARLINK-4108,1 52834U 22062E   24229.96405192 -.00001271  00000-0 -61782-4 0  9990,2 52834  53.2167  71.7213 0001823  95.1499 264.9702 15.08846809119774,6917.86,95.437,540.986,538.463,0.0
52834.0,STARLINK-4108,PAYLOAD,2024-08-17 13:26:42,15.08840881,0.0001856,53.2155,69.0443,95.8644,264.2559,-9.8686e-05,-1.858e-05,0.0,0 STARLINK-4108,1 52834U 22062E   24230.56021570 -.00001858  00000-0 -98686-4 0  9996,2 52834  53.2155  69.0443 0001856  95.8644 264.2559 15.08840881119868,6917.878,95.437,541.027,538.459,0.0
52834.0,STARLINK-4108,PAYLOAD,2024-08-17 22:59:01,15.08837793,0.0001959,53.2157,67.2603,86.9035,273.2181,1.4938e-05,-5e-07,0.0,0 STARLINK-4108,1 52834U 22062E   24230.95766030 -.00000050  00000-0  14938-4 0  9996,2 52834  53.2157  67.2603 0001959  86.9035 273.2181 15.08837793119923,6917.887,95.438,541.107,538.397,0.0
52834.0,STARLINK-4108,PAYLOAD,2024-08-18 18:03:38,15.08843969,0.0001418,53.2171,63.6932,88.4273,271.6882,0.00021963,3.21e-05,0.0,0 STARLINK-4108,1 52834U 22062E   24231.75252714  .00003210  00000-0  21963-3 0  9999,2 52834  53.2171  63.6932 0001418  88.4273 271.6882 15.08843969120042,6917.868,95.437,540.714,538.752,0.0
52834.0,STARLINK-4108,PAYLOAD,2024-08-19 13:08:16,15.08841784,0.0001451,53.2172,60.1226,92.0349,268.0809,5.2638e-05,5.5e-06,0.0,0 STARLINK-4108,1 52834U 22062E   24232.54741309  .00000550  00000-0  52638-4 0  9998,2 52834  53.2172  60.1226 0001451  92.0349 268.0809 15.08841784120168,6917.875,95.437,540.744,538.736,0.0
52834.0,STARLINK-4108,PAYLOAD,2024-08-20 11:23:40,15.08837991,0.0001519,53.2172,55.9582,82.7639,277.3525,2.3773e-06,-2.5e-06,0.0,0 STARLINK-4108,1 52834U 22062E   24233.47477919 -.00000250  00000-0  23773-5 0  9991,2 52834  53.2172  55.9582 0001519  82.7639 277.3525 15.08837991120307,6917.887,95.438,540.802,538.701,0.0
52834.0,STARLINK-4108,PAYLOAD,2024-08-20 20:55:59,15.08850672,0.0001478,53.2176,54.1755,100.9414,259.1745,-7.5686e-05,-1.493e-05,0.0,0 STARLINK-4108,1 52834U 22062E   24233.87221130 -.00001493  00000-0 -75686-4 0  9997,2 52834  53.2176  54.1755 0001478 100.9414 259.1745 15.08850672120361,6917.848,95.437,540.735,538.69,0.0
52834.0,STARLINK-4108,PAYLOAD,2024-08-21 20:46:46,15.08840758,8.16e-05,53.2191,49.7109,84.7241,275.3844,5.7983e-05,6.35e-06,0.0,0 STARLINK-4108,1 52834U 22062E   24234.86581679  .00000635  00000-0  57983-4 0  9999,2 52834  53.2191  49.7109 0000816  84.7241 275.3844 15.08840758120514,6917.878,95.438,540.308,539.179,0.0
52834.0,STARLINK-4108,PAYLOAD,2024-08-21 22:22:09,15.08840315,0.0001234,53.2182,49.4173,95.5018,264.6115,0.00012689,1.732e-05,0.0,0 STARLINK-4108,1 52834U 22062E   24234.93205658  .00001732  00000-0  12689-3 0  9999,2 52834  53.2182  49.4173 0001234  95.5018 264.6115 15.08840315120521,6917.879,95.438,540.598,538.891,0.0
